{
  "type": "FeatureCollection",
  "features": [
    {
      "type": "Feature",
      "properties": {
        "norad_id": 38857,
        "name": "GSAT0103 (GALILEO-FM3)",
        "group": "gnss",
        "lat": -47.86018158202718,
        "lon": -24.640309699835893,
        "alt_km": 23220.039536929387,
        "timestamp": "2025-12-19T18:58:41.831298+00:00",
        "meta_object_name": "GSAT0103 (GALILEO-FM3)",
        "meta_object_id": "2012-055A",
        "meta_epoch": "2025-12-18T05:17:11.481792",
        "meta_mean_motion": 1.70473412,
        "meta_eccentricity": 0.00028558,
        "meta_inclination": 55.6954,
        "meta_ra_of_asc_node": 106.5161,
        "meta_arg_of_pericenter": 269.0808,
        "meta_mean_anomaly": 90.8455,
        "meta_ephemeris_type": 0,
        "meta_classification_type": "U",
        "meta_norad_cat_id": 38857,
        "meta_element_set_no": 999,
        "meta_rev_at_epoch": 8192,
        "meta_bstar": 0,
        "meta_mean_motion_dot": -7e-08,
        "meta_mean_motion_ddot": 0,
        "tle_line1": "1 38857U 12055A   25352.22027178 -.00000007  00000+0  00000+0 0  9996",
        "tle_line2": "2 38857  55.6954 106.5161 0002855 269.0808  90.8455  1.70473412 81920"
      },
      "geometry": {
        "type": "Point",
        "coordinates": [
          -24.640309699835893,
          -47.86018158202718
        ]
      }
    },
    {
      "type": "Feature",
      "properties": {
        "norad_id": 38953,
        "name": "BEIDOU-2 G6 (C02)",
        "group": "gnss",
        "lat": 1.5055989311800877,
        "lon": 97.30025862971397,
        "alt_km": 35786.40271902273,
        "timestamp": "2025-12-19T18:58:41.831310+00:00",
        "meta_object_name": "BEIDOU-2 G6 (C02)",
        "meta_object_id": "2012-059A",
        "meta_epoch": "2025-12-19T01:33:51.789600",
        "meta_mean_motion": 1.00269092,
        "meta_eccentricity": 0.00082571,
        "meta_inclination": 3.9642,
        "meta_ra_of_asc_node": 75.4471,
        "meta_arg_of_pericenter": 292.1855,
        "meta_mean_anomaly": 187.7113,
        "meta_ephemeris_type": 0,
        "meta_classification_type": "U",
        "meta_norad_cat_id": 38953,
        "meta_element_set_no": 999,
        "meta_rev_at_epoch": 4810,
        "meta_bstar": 0,
        "meta_mean_motion_dot": -1.53e-06,
        "meta_mean_motion_ddot": 0,
        "tle_line1": "1 38953U 12059A   25353.06518275 -.00000153  00000+0  00000+0 0  9995",
        "tle_line2": "2 38953   3.9642  75.4471 0008257 292.1855 187.7113  1.00269092 48106"
      },
      "geometry": {
        "type": "Point",
        "coordinates": [
          97.30025862971397,
          1.5055989311800877
        ]
      }
    },
    {
      "type": "Feature",
      "properties": {
        "norad_id": 38977,
        "name": "LUCH 5B (SDCM/PRN 125)",
        "group": "gnss",
        "lat": -8.220926597660647,
        "lon": -2.5265147140175728,
        "alt_km": 35796.67109849856,
        "timestamp": "2025-12-19T18:58:41.831326+00:00",
        "meta_object_name": "LUCH 5B (SDCM/PRN 125)",
        "meta_object_id": "2012-061A",
        "meta_epoch": "2025-12-19T08:07:13.710432",
        "meta_mean_motion": 1.00272469,
        "meta_eccentricity": 0.00066477,
        "meta_inclination": 10.0948,
        "meta_ra_of_asc_node": 51.6429,
        "meta_arg_of_pericenter": 195.0477,
        "meta_mean_anomaly": 306.9758,
        "meta_ephemeris_type": 0,
        "meta_classification_type": "U",
        "meta_norad_cat_id": 38977,
        "meta_element_set_no": 999,
        "meta_rev_at_epoch": 4780,
        "meta_bstar": 0,
        "meta_mean_motion_dot": -1.21e-06,
        "meta_mean_motion_ddot": 0,
        "tle_line1": "1 38977U 12061A   25353.33835313 -.00000121  00000+0  00000+0 0  9994",
        "tle_line2": "2 38977  10.0948  51.6429 0006647 195.0477 306.9758  1.00272469 47809"
      },
      "geometry": {
        "type": "Point",
        "coordinates": [
          -2.5265147140175728,
          -8.220926597660647
        ]
      }
    },
    {
      "type": "Feature",
      "properties": {
        "norad_id": 39155,
        "name": "COSMOS 2485 (747)",
        "group": "gnss",
        "lat": 61.30165714182254,
        "lon": -157.3436958967478,
        "alt_km": 19159.176617564837,
        "timestamp": "2025-12-19T18:58:41.831345+00:00",
        "meta_object_name": "COSMOS 2485 (747)",
        "meta_object_id": "2013-019A",
        "meta_epoch": "2025-12-18T17:09:02.655648",
        "meta_mean_motion": 2.13103192,
        "meta_eccentricity": 0.00247782,
        "meta_inclination": 65.3168,
        "meta_ra_of_asc_node": 79.6661,
        "meta_arg_of_pericenter": 230.0863,
        "meta_mean_anomaly": 129.7189,
        "meta_ephemeris_type": 0,
        "meta_classification_type": "U",
        "meta_norad_cat_id": 39155,
        "meta_element_set_no": 999,
        "meta_rev_at_epoch": 9843,
        "meta_bstar": 0,
        "meta_mean_motion_dot": -3.5e-07,
        "meta_mean_motion_ddot": 0,
        "tle_line1": "1 39155U 13019A   25352.71461407 -.00000035  00000+0  00000+0 0  9991",
        "tle_line2": "2 39155  65.3168  79.6661 0024778 230.0863 129.7189  2.13103192 98432"
      },
      "geometry": {
        "type": "Point",
        "coordinates": [
          -157.3436958967478,
          61.30165714182254
        ]
      }
    },
    {
      "type": "Feature",
      "properties": {
        "norad_id": 39166,
        "name": "GPS BIIF-4  (PRN 27)",
        "group": "gnss",
        "lat": 50.372564226513404,
        "lon": -24.86260727154754,
        "alt_km": 19835.531430974057,
        "timestamp": "2025-12-19T18:58:41.831360+00:00",
        "meta_object_name": "GPS BIIF-4  (PRN 27)",
        "meta_object_id": "2013-023A",
        "meta_epoch": "2025-12-19T04:43:12.891072",
        "meta_mean_motion": 2.0056472,
        "meta_eccentricity": 0.01383011,
        "meta_inclination": 54.6464,
        "meta_ra_of_asc_node": 276.3057,
        "meta_arg_of_pericenter": 48.6899,
        "meta_mean_anomaly": 312.5197,
        "meta_ephemeris_type": 0,
        "meta_classification_type": "U",
        "meta_norad_cat_id": 39166,
        "meta_element_set_no": 999,
        "meta_rev_at_epoch": 9227,
        "meta_bstar": 0,
        "meta_mean_motion_dot": -2.9e-07,
        "meta_mean_motion_ddot": 0,
        "tle_line1": "1 39166U 13023A   25353.19667698 -.00000029  00000+0  00000+0 0  9994",
        "tle_line2": "2 39166  54.6464 276.3057 0138301  48.6899 312.5197  2.00564720 92270"
      },
      "geometry": {
        "type": "Point",
        "coordinates": [
          -24.86260727154754,
          50.372564226513404
        ]
      }
    },
    {
      "type": "Feature",
      "properties": {
        "norad_id": 39199,
        "name": "IRNSS-1A",
        "group": "gnss",
        "lat": 1.055577746265397,
        "lon": 67.95404950636602,
        "alt_km": 35876.496324908505,
        "timestamp": "2025-12-19T18:58:41.831372+00:00",
        "meta_object_name": "IRNSS-1A",
        "meta_object_id": "2013-034A",
        "meta_epoch": "2025-12-18T18:41:43.776960",
        "meta_mean_motion": 1.00272479,
        "meta_eccentricity": 0.0024472,
        "meta_inclination": 35.3183,
        "meta_ra_of_asc_node": 66.4661,
        "meta_arg_of_pericenter": 211.0525,
        "meta_mean_anomaly": 145.3931,
        "meta_ephemeris_type": 0,
        "meta_classification_type": "U",
        "meta_norad_cat_id": 39199,
        "meta_element_set_no": 999,
        "meta_rev_at_epoch": 4555,
        "meta_bstar": 0,
        "meta_mean_motion_dot": 6.5e-07,
        "meta_mean_motion_ddot": 0,
        "tle_line1": "1 39199U 13034A   25352.77897890  .00000065  00000+0  00000+0 0  9993",
        "tle_line2": "2 39199  35.3183  66.4661 0024472 211.0525 145.3931  1.00272479 45557"
      },
      "geometry": {
        "type": "Point",
        "coordinates": [
          67.95404950636602,
          1.055577746265397
        ]
      }
    },
    {
      "type": "Feature",
      "properties": {
        "norad_id": 39533,
        "name": "GPS BIIF-5  (PRN 30)",
        "group": "gnss",
        "lat": 50.17439998463802,
        "lon": -141.24721203491657,
        "alt_km": 20364.3083208933,
        "timestamp": "2025-12-19T18:58:41.831385+00:00",
        "meta_object_name": "GPS BIIF-5  (PRN 30)",
        "meta_object_id": "2014-008A",
        "meta_epoch": "2025-12-17T04:42:21.782016",
        "meta_mean_motion": 2.00574699,
        "meta_eccentricity": 0.00793343,
        "meta_inclination": 53.632,
        "meta_ra_of_asc_node": 156.7429,
        "meta_arg_of_pericenter": 226.5757,
        "meta_mean_anomaly": 132.7662,
        "meta_ephemeris_type": 0,
        "meta_classification_type": "U",
        "meta_norad_cat_id": 39533,
        "meta_element_set_no": 999,
        "meta_rev_at_epoch": 8603,
        "meta_bstar": 0,
        "meta_mean_motion_dot": 7.8e-07,
        "meta_mean_motion_ddot": 0,
        "tle_line1": "1 39533U 14008A   25351.19608544  .00000078  00000+0  00000+0 0  9992",
        "tle_line2": "2 39533  53.6320 156.7429 0079334 226.5757 132.7662  2.00574699 86034"
      },
      "geometry": {
        "type": "Point",
        "coordinates": [
          -141.24721203491657,
          50.17439998463802
        ]
      }
    }
  ]
}